     3.00           N                   E                   RINEX VERSION / TYPE
BRD_USR             ESA                 20190102 131750  UTCPGM / RUN BY / DATE
 GAL   3.7750E+01  2.3438E-02  1.0071E-03  0.0000E+00       IONOSPHERIC CORR
GAUT  9.3132257462E-10-8.881784197E-16 259200 2034 GSTB   0 TIME SYSTEM CORR
GPGA -1.6589183360E-09-1.199040867E-14 259200 2034 GSTB   0 TIME SYSTEM CORR
                                                            END OF HEADER
E09 2019 01 02 11 20 00 6.570316327270E-03-1.129762949859E-11 0.000000000000E+00
     1.160000000000E+02-2.631250000000E+01 3.678010346751E-09-2.620695793082E+00
    -1.193955540657E-06 2.619320293888E-04 4.839152097702E-06 5.440610450745E+03
     3.000000000000E+05-5.587935447693E-09 1.358113315831E+00-1.061707735062E-07
     9.581715739549E-01 2.320312500000E+02 1.407218994834E-01-5.842743373714E-09
    -3.032269163325E-10 5.210000000000E+02 2.034000000000E+03 0.000000000000E+00
     3.120000000000E+00 0.000000000000E+00-3.259629011154E-09-3.958120942116E-09
     3.006850000000E+05 0.000000000000E+00 0.000000000000E+00 0.000000000000E+00
E11 2019 01 02 11 20 00 5.718753091060E-03 1.207922650792E-12 0.000000000000E+00
     1.160000000000E+02-1.461562500000E+02 2.581178945035E-09-2.388780206284E-02
    -6.785616278648E-06 2.357502235100E-04 9.329989552498E-06 5.440613159180E+03
     3.000000000000E+05 1.490116119385E-08-7.385123045847E-01-9.313225746155E-09
     9.820416147294E-01 1.530000000000E+02-3.602541129555E-01-5.333436444750E-09
     8.214627886510E-12 5.210000000000E+02 2.034000000000E+03 0.000000000000E+00
     3.120000000000E+00 0.000000000000E+00-1.839362084866E-08-2.002343535423E-08
     3.006850000000E+05 0.000000000000E+00 0.000000000000E+00 0.000000000000E+00
E13 2019 01 02 11 20 00 3.812396898866E-04 4.263256414561E-13 0.000000000000E+00
     1.160000000000E+02-1.671875000000E+02 2.558320850047E-09-1.898350471220E+00
    -7.649883627892E-06 3.313879715279E-04 1.081638038158E-05 5.440605243683E+03
     3.000000000000E+05-1.117587089539E-08-7.438201853821E-01 2.607703208923E-08
     9.852834338784E-01 1.185937500000E+02-1.621096327729E+00-5.280934257823E-09
     3.893019302737E-11 5.210000000000E+02 2.034000000000E+03 0.000000000000E+00
     3.120000000000E+00 4.550000000000E+02-4.190951585770E-09-4.889443516731E-09
     3.006850000000E+05 0.000000000000E+00 0.000000000000E+00 0.000000000000E+00
E15 2019 01 02 11 20 00 9.240682120435E-04-1.094235813071E-12 0.000000000000E+00
     1.160000000000E+02-1.515312500000E+02 2.557249376844E-09-1.037036611320E+00
    -7.057562470436E-06 3.821067512035E-04 1.103244721889E-05 5.440605751038E+03
     3.000000000000E+05-2.235174179077E-08-7.438315186084E-01-7.450580596924E-09
     9.852413574286E-01 1.163750000000E+02-1.700235848025E+00-5.301649406407E-09
     4.571618997710E-11 5.210000000000E+02 2.034000000000E+03 0.000000000000E+00
     3.120000000000E+00 4.550000000000E+02 1.862645149231E-09 1.629814505577E-09
     3.006850000000E+05 0.000000000000E+00 0.000000000000E+00 0.000000000000E+00
E19 2019 01 02 11 20 00-9.430747013539E-06 2.842170943040E-13 0.000000000000E+00
     1.160000000000E+02-2.440625000000E+01 3.676581715814E-09-2.983691541792E+00
    -1.149252057076E-06 1.335216220468E-04 4.855915904045E-06 5.440604316711E+03
     3.000000000000E+05-2.235174179077E-08 1.363469478777E+00-1.117587089539E-08
     9.579302378223E-01 2.363125000000E+02 2.153846342997E+00-5.780597927964E-09
    -2.439387324559E-10 5.210000000000E+02 2.034000000000E+03 0.000000000000E+00
     3.120000000000E+00 0.000000000000E+00-8.614733815193E-09-8.847564458847E-09
     3.006850000000E+05 0.000000000000E+00 0.000000000000E+00 0.000000000000E+00
E21 2019 01 02 11 20 00-5.124166491441E-04-1.904254531837E-12 0.000000000000E+00
     1.160000000000E+02 1.828750000000E+02 2.555106430439E-09-1.671348859897E+00
     8.532777428627E-06 4.804192576557E-05 6.264075636864E-06 5.440633401871E+03
     3.000000000000E+05-5.215406417847E-08-2.826835032500E+00-1.862645149231E-09
     9.898769981102E-01 2.196875000000E+02-5.238996710270E-01-5.496300371544E-09
     2.992981812563E-10 5.210000000000E+02 2.034000000000E+03 0.000000000000E+00
     3.120000000000E+00 0.000000000000E+00-2.328306436539E-09-2.793967723846E-09
     3.006850000000E+05 0.000000000000E+00 0.000000000000E+00 0.000000000000E+00
E24 2019 01 02 11 20 00 6.306964729447E-03-1.969624463527E-11 0.000000000000E+00
     1.160000000000E+02 1.658125000000E+02 2.586536311048E-09 1.275033593924E+00
     7.741153240204E-06 4.594870842993E-04 5.671754479408E-06 5.440625061035E+03
     3.000000000000E+05-7.078051567078E-08-2.820751029774E+00 3.725290298462E-09
     9.878794668593E-01 2.339687500000E+02 4.353906724548E-01-5.467013437339E-09
     2.367955777720E-10 5.210000000000E+02 2.034000000000E+03 0.000000000000E+00
     3.120000000000E+00 0.000000000000E+00 4.260800778866E-08 4.773028194904E-08
     3.006850000000E+05 0.000000000000E+00 0.000000000000E+00 0.000000000000E+00
E26 2019 01 02 11 20 00 5.065916513558E-03-4.331468517194E-11 0.000000000000E+00
     1.160000000000E+02-1.756875000000E+02 2.564749689262E-09-2.166281376349E+00
    -8.100643754005E-06 3.275574417785E-04 9.961426258087E-06 5.440617776871E+03
     3.000000000000E+05 3.725290298462E-09-7.348686730414E-01 2.793967723846E-08
     9.783985566499E-01 1.325625000000E+02-2.134759909753E+00-5.330936340611E-09
     5.071639825584E-11 5.210000000000E+02 2.034000000000E+03 0.000000000000E+00
     3.120000000000E+00 0.000000000000E+00 1.164153218269E-09 1.164153218269E-09
     3.006850000000E+05 0.000000000000E+00 0.000000000000E+00 0.000000000000E+00
E27 2019 01 02 11 20 00 5.579162971117E-04-7.702283255639E-12 0.000000000000E+00
     1.160000000000E+02 1.865000000000E+02 2.671897009521E-09-4.477938332106E-01
     8.651986718178E-06 2.107697073370E-04 5.474314093590E-06 5.440628870010E+03
     3.000000000000E+05 6.891787052155E-08-2.826817925136E+00-1.154839992523E-07
     9.898496298388E-01 2.376250000000E+02-9.606455103300E-01-5.559517290496E-09
     2.089372745047E-10 5.210000000000E+02 2.034000000000E+03 0.000000000000E+00
     3.120000000000E+00 0.000000000000E+00-2.561137080193E-09-3.026798367500E-09
     3.006850000000E+05 0.000000000000E+00 0.000000000000E+00 0.000000000000E+00
E31 2019 01 02 11 20 00 9.429762721993E-04-9.663381206337E-12 0.000000000000E+00
     1.160000000000E+02 1.707812500000E+02 2.655824911482E-09-2.225446240986E+00
     8.016824722290E-06 2.620413433760E-04 5.858018994331E-06 5.440632917404E+03
     3.000000000000E+05-8.754432201385E-08-2.826866650548E+00 1.117587089539E-07
     9.898517583846E-01 2.285937500000E+02-1.539166572077E+00-5.593090117511E-09
     2.242950570751E-10 5.210000000000E+02 2.034000000000E+03 0.000000000000E+00
     3.120000000000E+00 0.000000000000E+00-2.328306436539E-10-2.328306436539E-10
     3.006850000000E+05 0.000000000000E+00 0.000000000000E+00 0.000000000000E+00
E01 2019 01 02 11 20 00-5.121284048073E-04-8.114398042380E-12 0.000000000000E+00
     1.160000000000E+02 1.739375000000E+02 2.604037040024E-09-2.100374723964E+00
     8.139759302139E-06 1.194266369566E-04 6.318092346191E-06 5.440621915817E+03
     3.000000000000E+05-1.303851604462E-08-2.824229265262E+00 9.313225746155E-09
     9.903121109087E-01 2.190937500000E+02-8.967843553537E-01-5.504157841696E-09
     2.928693420408E-10 2.580000000000E+02 2.034000000000E+03 0.000000000000E+00
     3.120000000000E+00 0.000000000000E+00-4.656612873077E-09 0.000000000000E+00
     3.007000000000E+05 0.000000000000E+00 0.000000000000E+00 0.000000000000E+00
E02 2019 01 02 11 20 00 4.165730206296E-05 1.520561454527E-12 0.000000000000E+00
     1.160000000000E+02 1.740312500000E+02 2.609037248302E-09 4.487205757217E-01
     8.139759302139E-06 2.670021494851E-04 4.932284355164E-06 5.440622104645E+03
     3.000000000000E+05 1.061707735062E-07-2.824262956266E+00 1.676380634308E-08
     9.903208401409E-01 2.490000000000E+02-3.059941551648E-01-5.514872573722E-09
     3.046555472693E-10 2.580000000000E+02 2.034000000000E+03 0.000000000000E+00
     3.120000000000E+00 0.000000000000E+00-6.286427378654E-09 0.000000000000E+00
     3.007000000000E+05 0.000000000000E+00 0.000000000000E+00 0.000000000000E+00
E03 2019 01 02 11 20 00-1.176380319521E-04-4.263256414561E-12 0.000000000000E+00
     1.160000000000E+02-2.237500000000E+01 3.723369378994E-09 1.611539391130E+00
    -1.102685928345E-06 2.878082450479E-04 5.282461643219E-06 5.440606515884E+03
     3.000000000000E+05-3.352761268616E-08 1.366773948855E+00 3.539025783539E-08
     9.521595526501E-01 2.220000000000E+02 6.204830981830E-01-5.747739416418E-09
    -2.796545058755E-10 2.580000000000E+02 2.034000000000E+03 0.000000000000E+00
     3.120000000000E+00 0.000000000000E+00-2.095475792885E-09 0.000000000000E+00
     3.007000000000E+05 0.000000000000E+00 0.000000000000E+00 0.000000000000E+00
E04 2019 01 02 11 20 00-1.916648470797E-04-7.844391802792E-12 0.000000000000E+00
     1.160000000000E+02-3.021875000000E+01 3.820159124961E-09 2.828051718060E+00
    -1.331791281700E-06 8.143135346472E-05 4.714354872704E-06 5.440608062744E+03
     3.000000000000E+05 5.029141902924E-08 1.366824381493E+00 2.607703208923E-08
     9.522016554324E-01 2.360000000000E+02 1.764623071268E+00-5.903817346261E-09
    -2.407243128482E-10 2.580000000000E+02 2.034000000000E+03 0.000000000000E+00
     3.120000000000E+00 0.000000000000E+00-8.149072527885E-09 0.000000000000E+00
     3.007000000000E+05 0.000000000000E+00 0.000000000000E+00 0.000000000000E+00
